      2.10          N: GNSS NAV DATA                        RINEX VERSION / TYPE
fic2rin                                 05/01/2020 00:17:48 PGM / RUN BY / DATE
                                                            END OF HEADER
16 20  4 30 14  0  0.0-1.526502892375e-04-4.433786671143e-12 0.000000000000e+00
    6.200000000000e+01 4.806250000000e+01 4.170888019942e-09 6.240687674491e-01
    2.844259142876e-06 1.152472035028e-02 8.467584848404e-06 5.153753643036e+03
    3.960000000000e+05-8.195638656616e-08 1.561371215207e+00 1.806765794754e-07
    9.786499796027e-01 2.238437500000e+02 6.296394132032e-01-7.953188425078e-09
   -4.064455015151e-10 1.000000000000e+00 2.103000000000e+03 0.000000000000e+00
    2.400000000000e+00 0.000000000000e+00-1.071020960808e-08 6.200000000000e+01
    3.888000000000e+05 4.000000000000e+00
 9 20  4 30 14  0  0.0-2.081575803459e-04-7.503331289627e-12 0.000000000000e+00
    4.400000000000e+01 7.000000000000e+00 4.837701509686e-09 1.046685467451e-01
    1.136213541031e-07 1.552729168907e-03 8.502975106239e-06 5.153740381241e+03
    3.960000000000e+05-1.676380634308e-08-6.372889811184e-01 1.862645149231e-08
    9.527261613031e-01 2.087812500000e+02 1.806095842067e+00-8.130695818974e-09
    3.378712165495e-10 1.000000000000e+00 2.103000000000e+03 0.000000000000e+00
    2.400000000000e+00 0.000000000000e+00 1.396983861923e-09 4.400000000000e+01
    3.888000000000e+05 4.000000000000e+00
27 20  4 30 14  0  0.0-2.810591831803e-04-1.034550223267e-11 0.000000000000e+00
    6.100000000000e+01 4.906250000000e+01 4.202675058285e-09-2.596701827054e-01
    2.538785338402e-06 8.234529057518e-03 5.643814802170e-06 5.153662668228e+03
    3.960000000000e+05 1.117587089539e-08 2.518765738280e+00 8.568167686462e-08
    9.782451784668e-01 2.762187500000e+02 5.482012814124e-01-8.157482649039e-09
   -5.785955293977e-11 1.000000000000e+00 2.103000000000e+03 0.000000000000e+00
    2.400000000000e+00 0.000000000000e+00 1.396983861923e-09 6.100000000000e+01
    3.888000000000e+05 4.000000000000e+00
15 20  4 30 14  0  0.0-2.344269305468e-04 2.614797267597e-12 0.000000000000e+00
    4.500000000000e+01-3.125000000000e-02 5.385581473943e-09-1.092770687291e+00
    2.644956111908e-07 1.224004116375e-02 8.562579751015e-06 5.153669691086e+03
    3.960000000000e+05 2.570450305939e-07-7.260692134800e-01 2.179294824600e-07
    9.282000705272e-01 1.924062500000e+02 8.740062761324e-01-8.370348658619e-09
    3.785871982478e-10 1.000000000000e+00 2.103000000000e+03 0.000000000000e+00
    2.400000000000e+00 0.000000000000e+00-1.117587089539e-08 4.500000000000e+01
    3.888000000000e+05 4.000000000000e+00
20 20  4 30 14  0  0.0 5.277548916638e-04 0.000000000000e+00 0.000000000000e+00
    3.300000000000e+01-9.746875000000e+01 4.886274961537e-09-2.931867671760e+00
   -4.801899194717e-06 5.060446681455e-03 7.908791303635e-06 5.153647651672e+03
    3.960000000000e+05-2.793967723846e-08-1.801698468316e+00 5.029141902924e-08
    9.334425369427e-01 2.098437500000e+02 2.649794602970e+00-8.197127157534e-09
    1.485776174256e-10 1.000000000000e+00 2.103000000000e+03 0.000000000000e+00
    2.400000000000e+00 0.000000000000e+00-8.847564458847e-09 3.300000000000e+01
    3.888000000000e+05 4.000000000000e+00
30 20  4 30 14  0  0.0-2.098800614476e-04-8.412825991400e-12 0.000000000000e+00
    1.010000000000e+02 2.190625000000e+01 5.321650239522e-09 3.120383842203e+00
    1.206994056702e-06 4.537661327049e-03 7.316470146179e-06 5.153653024673e+03
    3.960000000000e+05-9.685754776001e-08 4.596564208664e-01-3.911554813385e-08
    9.389763186241e-01 2.301875000000e+02-2.890907640581e+00-8.267487231171e-09
   -1.878649681871e-10 1.000000000000e+00 2.103000000000e+03 0.000000000000e+00
    2.400000000000e+00 0.000000000000e+00 3.725290298462e-09 1.010000000000e+02
    3.888000000000e+05 4.000000000000e+00
24 20  4 30 14  0  0.0-1.240242272615e-05-4.547473508865e-13 0.000000000000e+00
    1.090000000000e+02 2.431250000000e+01 5.399153467842e-09-2.176329963141e+00
    1.089647412300e-06 9.618551121093e-03 6.863847374916e-06 5.153649484634e+03
    3.960000000000e+05 1.415610313416e-07 3.649148426822e-01-1.117587089539e-07
    9.369437738918e-01 2.333125000000e+02 6.672644241845e-01-8.279273436399e-09
   -3.643008888800e-11 1.000000000000e+00 2.103000000000e+03 0.000000000000e+00
    3.400000000000e+00 0.000000000000e+00 2.793967723846e-09 1.090000000000e+02
    3.888000000000e+05 4.000000000000e+00
21 20  4 30 14  0  0.0-7.465481758118e-06 4.888534022029e-12 0.000000000000e+00
    1.000000000000e+02-4.643750000000e+01 4.561975738887e-09 2.084796419476e+00
   -2.598389983177e-06 2.466719259974e-02 2.576038241386e-06 5.153521617889e+03
    3.960000000000e+05 3.762543201447e-07-2.782674140953e+00 2.235174179077e-08
    9.529972488007e-01 3.199375000000e+02-1.334704408779e+00-8.014619555360e-09
   -1.225051028293e-10 1.000000000000e+00 2.103000000000e+03 0.000000000000e+00
    2.400000000000e+00 0.000000000000e+00-1.024454832077e-08 1.000000000000e+02
    3.888000000000e+05 4.000000000000e+00
14 20  4 30 14  0  0.0-1.616310328245e-05 2.501110429876e-12 0.000000000000e+00
    8.100000000000e+01 5.968750000000e+00 4.764841331910e-09-4.826210718820e-01
    4.041939973831e-07 1.134024851490e-02 8.746981620789e-06 5.153634254456e+03
    3.960000000000e+05-9.126961231232e-08-5.416268485666e-01 1.080334186554e-07
    9.605534781537e-01 2.160000000000e+02-1.919636036066e+00-8.161054226381e-09
    3.400141629547e-10 1.000000000000e+00 2.103000000000e+03 0.000000000000e+00
    2.400000000000e+00 0.000000000000e+00-9.778887033463e-09 8.100000000000e+01
    3.888000000000e+05 4.000000000000e+00
25 20  4 30 14  0  0.0 4.684552550316e-07 2.842170943040e-12 0.000000000000e+00
    7.600000000000e+01 5.609375000000e+01 4.333751946735e-09 2.242946184923e+00
    2.650544047356e-06 9.273730800487e-03 9.125098586082e-06 5.153560281754e+03
    3.960000000000e+05-8.568167686462e-08 1.473862997430e+00-2.123415470123e-07
    9.657670534000e-01 2.035000000000e+02 9.289984390510e-01-7.801753545779e-09
   -3.539433145883e-10 1.000000000000e+00 2.103000000000e+03 0.000000000000e+00
    2.400000000000e+00 0.000000000000e+00 5.587935447693e-09 7.600000000000e+01
    3.888000000000e+05 4.000000000000e+00
13 20  4 30 14  0  0.0 6.255228072405e-06 2.955857780762e-12 0.000000000000e+00
    1.010000000000e+02 6.218750000000e+00 4.578404994660e-09-1.004529718718e+00
    4.619359970093e-07 4.113312461413e-03 8.428469300270e-06 5.153655208588e+03
    3.960000000000e+05 1.862645149231e-08-4.948549627755e-01 1.117587089539e-07
    9.679902353759e-01 2.221562500000e+02 1.099737969232e+00-7.949259690002e-09
    2.921550265724e-10 1.000000000000e+00 2.103000000000e+03 0.000000000000e+00
    2.400000000000e+00 0.000000000000e+00-1.117587089539e-08 1.010000000000e+02
    3.888000000000e+05 4.000000000000e+00
12 20  4 30 14  0  0.0 1.233248040080e-04-4.320099833421e-12 0.000000000000e+00
    9.400000000000e+01 6.559375000000e+01 3.978380001210e-09 2.457311478532e+00
    3.131106495857e-06 8.119378588162e-03 8.577480912209e-06 5.153708780289e+03
    3.960000000000e+05-1.490116119385e-08 1.542499381805e+00-1.490116119385e-07
    9.784142522980e-01 2.181250000000e+02 1.144722343218e+00-7.645318458201e-09
   -3.732298322349e-10 1.000000000000e+00 2.103000000000e+03 0.000000000000e+00
    2.400000000000e+00 0.000000000000e+00-1.257285475731e-08 9.400000000000e+01
    3.888000000000e+05 4.000000000000e+00
26 20  4 30 14  0  0.0 1.974999904633e-04 7.275957614183e-12 0.000000000000e+00
    6.800000000000e+01 4.228125000000e+01 4.875560229511e-09 1.569933453824e+00
    2.484768629074e-06 4.733891342767e-03 8.871778845787e-06 5.153611568451e+03
    3.960000000000e+05-1.676380634308e-08 1.439048553440e+00 8.568167686462e-08
    9.468785968600e-01 2.008125000000e+02 2.315138724192e-01-8.213913571042e-09
   -4.139458139333e-10 1.000000000000e+00 2.103000000000e+03 0.000000000000e+00
    2.400000000000e+00 0.000000000000e+00 7.450580596924e-09 6.800000000000e+01
    3.888000000000e+05 4.000000000000e+00
18 20  4 30 14  0  0.0 1.742849126458e-04 1.284661266254e-11 0.000000000000e+00
    1.360000000000e+02-5.743750000000e+01 4.448756737146e-09-2.057517034952e+00
   -2.967193722725e-06 5.833096802235e-04 3.943219780922e-06 5.154345380783e+03
    3.960000000000e+05 1.862645149231e-09-2.691663527596e+00 9.126961231232e-08
    9.635998353552e-01 3.060937500000e+02 2.888605875035e+00-8.232842930954e-09
    2.107230631757e-11 1.000000000000e+00 2.103000000000e+03 0.000000000000e+00
    2.400000000000e+00 0.000000000000e+00-4.656612873077e-09 6.480000000000e+02
    3.888000000000e+05 4.000000000000e+00
23 20  4 30 14  0  0.0-1.179878599942e-04 3.069544618484e-12 0.000000000000e+00
    1.030000000000e+02 7.343750000000e+00 4.978421656959e-09-2.061686935182e+00
    8.195638656616e-08 1.417228276841e-02 8.055940270424e-06 5.155157548904e+03
    3.960000000000e+05 1.695007085800e-07-6.455947336234e-01-4.097819328308e-08
    9.435369247745e-01 2.073750000000e+02-2.197536381194e+00-7.990689987169e-09
    4.853773607725e-10 1.000000000000e+00 2.103000000000e+03 0.000000000000e+00
    2.400000000000e+00 6.300000000000e+01-2.002343535423e-08 1.030000000000e+02
    3.888000000000e+05 4.000000000000e+00
28 20  4 30 14  0  0.0 7.212692871690e-04-3.069544618484e-12 0.000000000000e+00
    4.100000000000e+01 5.100000000000e+01 4.250891352402e-09 4.840611464954e-01
    2.672895789146e-06 1.843467773870e-02 8.411705493927e-06 5.153668912888e+03
    3.960000000000e+05-1.844018697739e-07 1.565122851066e+00-1.210719347000e-07
    9.776649953970e-01 2.337812500000e+02-1.408707135084e+00-8.216056517447e-09
   -3.017982853957e-10 1.000000000000e+00 2.103000000000e+03 0.000000000000e+00
    4.850000000000e+00 0.000000000000e+00-1.117587089539e-08 4.100000000000e+01
    3.888000000000e+05 4.000000000000e+00
